[{"OBJECT_NAME":"GEESAT-1 08","OBJECT_ID":"2022-058H","EPOCH":"2026-03-09T20:59:16.339488","MEAN_MOTION":14.81028029,"ECCENTRICITY":0.00200606,"INCLINATION":49.9934,"RA_OF_ASC_NODE":300.0848,"ARG_OF_PERICENTER":270.1899,"MEAN_ANOMALY":89.674,"EPHEMERIS_TYPE":0,"CLASSIFICATION_TYPE":"U","NORAD_CAT_ID":52792,"ELEMENT_SET_NO":999,"REV_AT_EPOCH":20521,"BSTAR":0.00033113954,"MEAN_MOTION_DOT":2.378e-5,"MEAN_MOTION_DDOT":0},{"OBJECT_NAME":"FENGYUN 1C DEB","OBJECT_ID":"1999-025CRB","EPOCH":"2026-03-08T21:24:59.073696","MEAN_MOTION":14.34245513,"ECCENTRICITY":0.02065029,"INCLINATION":98.3519,"RA_OF_ASC_NODE":309.663,"ARG_OF_PERICENTER":55.4416,"MEAN_ANOMALY":306.6068,"EPHEMERIS_TYPE":0,"CLASSIFICATION_TYPE":"U","NORAD_CAT_ID":32109,"ELEMENT_SET_NO":999,"REV_AT_EPOCH":66123,"BSTAR":0.00049347369,"MEAN_MOTION_DOT":1.713e-5,"MEAN_MOTION_DDOT":0}]
